NORAD_CAT_ID,OBJECT_NAME,OBJECT_TYPE,EPOCH,MEAN_MOTION,ECCENTRICITY,INCLINATION,RA_OF_ASC_NODE,ARG_OF_PERICENTER,MEAN_ANOMALY,BSTAR,MEAN_MOTION_DOT,MEAN_MOTION_DDOT,TLE_LINE0,TLE_LINE1,TLE_LINE2,SEMIMAJOR_AXIS,PERIOD,APOGEE,PERIGEE,DECAYED
53718.0,STARLINK-4695,PAYLOAD,2022-12-04 22:00:00,15.0883869,0.0002219,53.2165,199.3334,52.6853,263.8726,-5.7515e-05,-1.204e-05,0.0,0 STARLINK-4695,1 53718U 22107U   22338.91667824 -.00001204  00000-0 -57515-4 0  9993,2 53718  53.2165 199.3334 0002219  52.6853 263.8726 15.08838690 14190,6917.884,95.438,541.284,538.214,0.0
53718.0,STARLINK-4695,PAYLOAD,2022-12-05 14:00:01,15.08840368,0.0002085,53.2161,196.33900000000003,58.7321,281.0885,0.0021127,0.00033497,0.0,0 STARLINK-4695,1 53718U 22107U   22339.58335648  .00033497  00000-0  21127-2 0  9998,2 53718  53.2161 196.3390 0002085  58.7321 281.0885 15.08840368  1305,6917.879,95.438,541.187,538.302,0.0
53718.0,STARLINK-4695,PAYLOAD,2022-12-05 18:51:33,15.08843689,0.0002157,53.2177,195.4299,53.2357,306.8832,9.0099e-05,1.146e-05,0.0,0 STARLINK-4695,1 53718U 22107U   22339.78580695  .00001146  00000-0  90099-4 0  9996,2 53718  53.2177 195.4299 0002157  53.2357 306.8832 15.08843689 14322,6917.869000000002,95.437,541.226,538.242,0.0
53718.0,STARLINK-4695,PAYLOAD,2022-12-06 13:56:11,15.08840492,0.0002211,53.2174,191.8617,54.8466,305.2733,5.8761e-05,6.47e-06,0.0,0 STARLINK-4695,1 53718U 22107U   22340.58068876  .00000647  00000-0  58761-4 0  9993,2 53718  53.2174 191.8617 0002211  54.8466 305.2733 15.08840492 14896,6917.879,95.438,541.273,538.214,0.0
53718.0,STARLINK-4695,PAYLOAD,2022-12-06 23:28:30,15.08842178,0.0002239,53.2178,190.0779,55.25100000000001,304.8693,3.3907e-05,2.51e-06,0.0,0 STARLINK-4695,1 53718U 22107U   22340.97812782  .00000251  00000-0  33907-4 0  9995,2 53718  53.2178 190.0779 0002239  55.2510 304.8693 15.08842178 14506,6917.874,95.437,541.288,538.19,0.0
53718.0,STARLINK-4695,PAYLOAD,2022-12-07 20:08:31,15.08839368,0.000245,53.2181,186.2152,55.1857,304.9366,-6.866e-05,-1.381e-05,0.0,0 STARLINK-4695,1 53718U 22107U   22341.83925257 -.00001381  00000-0 -68660-4 0  9994,2 53718  53.2181 186.2152 0002450  55.1857 304.9366 15.08839368 15089,6917.882,95.438,541.442,538.052,0.0
53718.0,STARLINK-4695,PAYLOAD,2022-12-08 07:16:13,15.08832199,0.0002334,53.2185,184.1357,40.1843,319.9322,-0.00011538,-2.124e-05,0.0,0 STARLINK-4695,1 53718U 22107U   22342.30293686 -.00002124  00000-0 -11538-3 0  9998,2 53718  53.2185 184.1357 0002334  40.1843 319.9322 15.08832199 15158,6917.904,95.438,541.384,538.155,0.0
53718.0,STARLINK-4695,PAYLOAD,2022-12-08 21:34:36,15.08898041,0.0001767,53.2177,181.4584,22.70300000000001,337.404,0.00053349,8.226e-05,0.0,0 STARLINK-4695,1 53718U 22107U   22342.89903398  .00008226  00000-0  53349-3 0  9993,2 53718  53.2177 181.4584 0001767  22.7030 337.4040 15.08898041 14793,6917.703,95.434,540.79,538.346,0.0
53718.0,STARLINK-4695,PAYLOAD,2022-12-09 19:50:06,15.08790875,0.0002395,53.2176,177.2928,35.5794,324.5357,0.00057502,8.863e-05,0.0,0 STARLINK-4695,1 53718U 22107U   22343.82645877  .00008863  00000-0  57502-3 0  9994,2 53718  53.2176 177.2928 0002395  35.5794 324.5357 15.08790875 14934,6918.031,95.441,541.552,538.239,0.0
53718.0,STARLINK-4695,PAYLOAD,2022-12-10 03:47:01,15.088342,0.000217,53.2171,175.8109,51.0651,309.0534,-2.5371e-05,-6.92e-06,0.0,0 STARLINK-4695,1 53718U 22107U   22344.15765462 -.00000692  00000-0 -25371-4 0  9998,2 53718  53.2171 175.8109 0002170  51.0651 309.0534 15.08834200 14981,6917.898,95.438,541.264,538.262,0.0
53718.0,STARLINK-4695,PAYLOAD,2022-12-10 13:19:21,15.08769032,0.0002068,53.218,174.0253,340.9268,19.1647,0.00049315,7.554e-05,0.0,0 STARLINK-4695,1 53718U 22107U   22344.55511270  .00007554  00000-0  49315-3 0  9993,2 53718  53.2180 174.0253 0002068 340.9268  19.1647 15.08769032 15493,6918.097,95.442,541.393,538.5319999999998,0.0
53718.0,STARLINK-4695,PAYLOAD,2022-12-10 19:40:52,15.08839085,0.0002138,53.2179,172.8317,58.3588,301.7612,-1.5984e-05,-5.43e-06,0.0,0 STARLINK-4695,1 53718U 22107U   22344.82005301 -.00000543  00000-0 -15984-4 0  9995,2 53718  53.2179 172.8317 0002138  58.3588 301.7612 15.08839085 15084,6917.8830000000025,95.438,541.227,538.269,0.0
53718.0,STARLINK-4695,PAYLOAD,2022-12-11 13:10:07,15.08833365,0.0002125,53.2173,169.5603,59.1783,300.9418,-1.9573e-05,-6e-06,0.0,0 STARLINK-4695,1 53718U 22107U   22345.54869835 -.00000600  00000-0 -19573-4 0  9997,2 53718  53.2173 169.5603 0002125  59.1783 300.9418 15.08833365 15643,6917.901,95.438,541.236,538.2959999999998,0.0
53718.0,STARLINK-4695,PAYLOAD,2022-12-11 17:56:16,15.088316699999998,0.0002128,53.2178,168.6678,60.1637,299.9566,2.8201e-05,1.61e-06,0.0,0 STARLINK-4695,1 53718U 22107U   22345.74741792  .00000161  00000-0  28201-4 0  9998,2 53718  53.2178 168.6678 0002128  60.1637 299.9566 15.08831670 15674,6917.906,95.438,541.243,538.299,0.0
53718.0,STARLINK-4695,PAYLOAD,2022-12-12 13:00:54,15.08838054,0.0002159,53.2181,165.0999,64.5534,295.5681,4.0613e-05,3.58e-06,0.0,0 STARLINK-4695,1 53718U 22107U   22346.54229599  .00000358  00000-0  40613-4 0  9992,2 53718  53.2181 165.0999 0002159  64.5534 295.5681 15.08838054 15799,6917.886,95.438,541.245,538.258,0.0
53718.0,STARLINK-4695,PAYLOAD,2022-12-13 12:51:41,15.08839724,0.0002141,53.2177,160.6385,60.0115,300.1089,4.5363e-05,4.34e-06,0.0,0 STARLINK-4695,1 53718U 22107U   22347.53589464  .00000434  00000-0  45363-4 0  9994,2 53718  53.2177 160.6385 0002141  60.0115 300.1089 15.08839724 15948,6917.880999999999,95.438,541.227,538.265,0.0
53718.0,STARLINK-4695,PAYLOAD,2022-12-13 20:48:37,15.08833598,0.0002006,53.2177,159.1521,59.0109,301.108,-8.6949e-06,-4.27e-06,0.0,0 STARLINK-4695,1 53718U 22107U   22347.86710070 -.00000427  00000-0 -86949-5 0  9999,2 53718  53.2177 159.1521 0002006  59.0109 301.1080 15.08833598 15994,6917.9,95.438,541.153,538.377,0.0
53718.0,STARLINK-4695,PAYLOAD,2022-12-14 04:45:33,15.08821797,0.0002218,53.2178,157.6655,53.8862,306.2336,0.00011687,1.571e-05,0.0,0 STARLINK-4695,1 53718U 22107U   22348.19830642  .00001571  00000-0  11687-3 0  9998,2 53718  53.2178 157.6655 0002218  53.8862 306.2336 15.08821797 15593,6917.936,95.439,541.335,538.2669999999998,0.0
53718.0,STARLINK-4695,PAYLOAD,2022-12-14 11:07:05,15.08837349,0.0001926,53.218,156.4761,57.1068,303.011,-6.7178e-05,-1.357e-05,0.0,0 STARLINK-4695,1 53718U 22107U   22348.46326234 -.00001357  00000-0 -67178-4 0  9996,2 53718  53.2180 156.4761 0001926  57.1068 303.0110 15.08837349 16081,6917.888000000001,95.438,541.086,538.4209999999998,0.0
53718.0,STARLINK-4695,PAYLOAD,2022-12-14 17:28:39,15.08830319,0.0002443,53.2201,155.2854,88.4562,271.671,-0.00016388,-2.895e-05,0.0,0 STARLINK-4695,1 53718U 22107U   22348.72823093 -.00002895  00000-0 -16388-3 0  9994,2 53718  53.2201 155.2854 0002443  88.4562 271.6710 15.08830319 16127,6917.91,95.438,541.465,538.085,0.0
53718.0,STARLINK-4695,PAYLOAD,2022-12-15 10:57:54,15.08826709,0.0002098,53.2184,152.0158,58.7949,301.3249,-6.3647e-05,-1.301e-05,0.0,0 STARLINK-4695,1 53718U 22107U   22349.45687545 -.00001301  00000-0 -63647-4 0  9997,2 53718  53.2184 152.0158 0002098  58.7949 301.3249 15.08826709 16232,6917.920999999999,95.438,541.237,538.335,0.0
53718.0,STARLINK-4695,PAYLOAD,2022-12-15 14:08:40,15.08829056,0.000203,53.218,151.4213,57.6221,302.4967,-3.178e-05,-7.94e-06,0.0,0 STARLINK-4695,1 53718U 22107U   22349.58935340 -.00000794  00000-0 -31780-4 0  9998,2 53718  53.2180 151.4213 0002030  57.6221 302.4967 15.08829056 15809,6917.9140000000025,95.438,541.183,538.375,0.0
53718.0,STARLINK-4695,PAYLOAD,2022-12-15 20:30:11,15.08842986,0.0002068,53.2174,150.2314,57.4122,302.707,0.00014982,2.097e-05,0.0,0 STARLINK-4695,1 53718U 22107U   22349.85429925  .00002097  00000-0  14982-3 0  9995,2 53718  53.2174 150.2314 0002068  57.4122 302.7070 15.08842986 16299,6917.871,95.437,541.1669999999998,538.306,0.0
53718.0,STARLINK-4695,PAYLOAD,2022-12-16 13:59:25,15.08842977,0.0001803,53.2179,146.9604,54.9395,305.1766,0.00018873,2.717e-05,0.0,0 STARLINK-4695,1 53718U 22107U   22350.58293465  .00002717  00000-0  18873-3 0  9997,2 53718  53.2179 146.9604 0001803  54.9395 305.1766 15.08842977 16400,6917.871,95.437,540.984,538.489,0.0
53718.0,STARLINK-4695,PAYLOAD,2022-12-16 20:20:58,15.08838738,0.0002202,53.2181,145.7717,57.2615,302.8589,0.00016156,2.284e-05,0.0,0 STARLINK-4695,1 53718U 22107U   22350.84789899  .00002284  00000-0  16156-3 0  9998,2 53718  53.2181 145.7717 0002202  57.2615 302.8589 15.08838738 16441,6917.884,95.438,541.273,538.226,0.0
53718.0,STARLINK-4695,PAYLOAD,2022-12-16 21:56:21,15.08838659,0.0002202,53.218,145.4743,57.4133,302.7071,0.00015937,2.249e-05,0.0,0 STARLINK-4695,1 53718U 22107U   22350.91413910  .00002249  00000-0  15937-3 0  9991,2 53718  53.2180 145.4743 0002202  57.4133 302.7071 15.08838659 16002,6917.884,95.438,541.273,538.226,0.0
53718.0,STARLINK-4695,PAYLOAD,2022-12-17 10:39:27,15.0883388,0.0002235,53.2181,143.0954,58.9772,301.1439,5.4966e-05,5.86e-06,0.0,0 STARLINK-4695,1 53718U 22107U   22351.44406620  .00000586  00000-0  54966-4 0  9998,2 53718  53.2181 143.0954 0002235  58.9772 301.1439 15.08833880 16532,6917.899,95.438,541.31,538.2180000000002,0.0
53718.0,STARLINK-4695,PAYLOAD,2022-12-17 17:00:59,15.08838238,0.0002223,53.218,141.9061,58.7699,301.3511,6.6387e-05,7.68e-06,0.0,0 STARLINK-4695,1 53718U 22107U   22351.70902302  .00000768  00000-0  66387-4 0  9997,2 53718  53.2180 141.9061 0002223  58.7699 301.3511 15.08838238 16579,6917.886,95.438,541.289,538.2130000000002,0.0
53718.0,STARLINK-4695,PAYLOAD,2022-12-18 10:30:14,15.08834137,0.0002129,53.2179,138.6365,55.1874,304.9318,-0.00016428,-2.901e-05,0.0,0 STARLINK-4695,1 53718U 22107U   22352.43767297 -.00002901  00000-0 -16428-3 0  9993,2 53718  53.2179 138.6365 0002129  55.1874 304.9318 15.08834137 16688,6917.898,95.438,541.236,538.29,0.0
